{"type": "FeatureCollection", "features": [ {"type": "Feature", "properties": {"norad_id": 58662, "name": "TIANMU-1 21", "group": "weather", "lat": 79.84087066475084, "lon": 66.11891370948257, "alt_km": 465.53496315334087, "timestamp": "2025-12-25T11:37:44.065359+00:00", "meta": {"OBJECT_NAME": "TIANMU-1 21", "OBJECT_ID": "2023-208C", "EPOCH": "2025-12-25T04:59:46.017600", "MEAN_MOTION": 15.31814811, "ECCENTRICITY": 0.0006474, "INCLINATION": 97.4376, "RA_OF_ASC_NODE": 112.6468, "ARG_OF_PERICENTER": 208.8207, "MEAN_ANOMALY": 151.2678, "EPHEMERIS_TYPE": 0, "CLASSIFICATION_TYPE": "U", "NORAD_CAT_ID": 58662, "ELEMENT_SET_NO": 999, "REV_AT_EPOCH": 11090, "BSTAR": 0.00041838, "MEAN_MOTION_DOT": 0.00012789, "MEAN_MOTION_DDOT": 0}, "tle": {"line1": "1 58662U 23208C   25359.20817150  .00012789  00000+0  41838-3 0  9993", "line2": "2 58662  97.4376 112.6468 0006474 208.8207 151.2678 15.31814811110905"}}, "geometry": {"type": "Point", "coordinates": [66.11891370948257, 79.84087066475084]}}, {"type": "Feature", "properties": {"norad_id": 58663, "name": "TIANMU-1 22", "group": "weather", "lat": -3.3826781127058174, "lon": -69.89112004035034, "alt_km": 484.27607747269485, "timestamp": "2025-12-25T11:37:44.065371+00:00", "meta": {"OBJECT_NAME": "TIANMU-1 22", "OBJECT_ID": "2023-208D", "EPOCH": "2025-12-25T04:32:29.152320", "MEAN_MOTION": 15.27811543, "ECCENTRICITY": 0.000299, "INCLINATION": 97.4382, "RA_OF_ASC_NODE": 110.2567, "ARG_OF_PERICENTER": 223.4419, "MEAN_ANOMALY": 136.6585, "EPHEMERIS_TYPE": 0, "CLASSIFICATION_TYPE": "U", "NORAD_CAT_ID": 58663, "ELEMENT_SET_NO": 999, "REV_AT_EPOCH": 11073, "BSTAR": 0.00036683, "MEAN_MOTION_DOT": 9.893e-05, "MEAN_MOTION_DDOT": 0}, "tle": {"line1": "1 58663U 23208D   25359.18922630  .00009893  00000+0  36683-3 0  9995", "line2": "2 58663  97.4382 110.2567 0002990 223.4419 136.6585 15.27811543110733"}}, "geometry": {"type": "Point", "coordinates": [-69.89112004035034, -3.3826781127058174]}}, {"type": "Feature", "properties": {"norad_id": 58700, "name": "TIANMU-1 15", "group": "weather", "lat": 14.309905021401063, "lon": 2.8224280213435744, "alt_km": 491.73073477492926, "timestamp": "2025-12-25T11:37:44.065381+00:00", "meta": {"OBJECT_NAME": "TIANMU-1 15", "OBJECT_ID": "2024-004A", "EPOCH": "2025-12-25T04:36:14.687424", "MEAN_MOTION": 15.24569361, "ECCENTRICITY": 0.0006079, "INCLINATION": 97.4629, "RA_OF_ASC_NODE": 180.6147, "ARG_OF_PERICENTER": 237.1517, "MEAN_ANOMALY": 122.9136, "EPHEMERIS_TYPE": 0, "CLASSIFICATION_TYPE": "U", "NORAD_CAT_ID": 58700, "ELEMENT_SET_NO": 999, "REV_AT_EPOCH": 10924, "BSTAR": 0.00032282, "MEAN_MOTION_DOT": 7.886e-05, "MEAN_MOTION_DDOT": 0}, "tle": {"line1": "1 58700U 24004A   25359.19183666  .00007886  00000+0  32282-3 0  9992", "line2": "2 58700  97.4629 180.6147 0006079 237.1517 122.9136 15.24569361109246"}}, "geometry": {"type": "Point", "coordinates": [2.8224280213435744, 14.309905021401063]}}, {"type": "Feature", "properties": {"norad_id": 58701, "name": "TIANMU-1 16", "group": "weather", "lat": -67.13392205790656, "lon": -17.809564306539627, "alt_km": 496.26759983626835, "timestamp": "2025-12-25T11:37:44.065391+00:00", "meta": {"OBJECT_NAME": "TIANMU-1 16", "OBJECT_ID": "2024-004B", "EPOCH": "2025-12-25T04:14:31.905888", "MEAN_MOTION": 15.24597249, "ECCENTRICITY": 0.0004415, "INCLINATION": 97.4569, "RA_OF_ASC_NODE": 179.9785, "ARG_OF_PERICENTER": 239.2476, "MEAN_ANOMALY": 120.8327, "EPHEMERIS_TYPE": 0, "CLASSIFICATION_TYPE": "U", "NORAD_CAT_ID": 58701, "ELEMENT_SET_NO": 999, "REV_AT_EPOCH": 10924, "BSTAR": 0.00032238, "MEAN_MOTION_DOT": 7.88e-05, "MEAN_MOTION_DDOT": 0}, "tle": {"line1": "1 58701U 24004B   25359.17675817  .00007880  00000+0  32238-3 0  9990", "line2": "2 58701  97.4569 179.9785 0004415 239.2476 120.8327 15.24597249109243"}}, "geometry": {"type": "Point", "coordinates": [-17.809564306539627, -67.13392205790656]}}, {"type": "Feature", "properties": {"norad_id": 58702, "name": "TIANMU-1 17", "group": "weather", "lat": -25.080094753461193, "lon": -175.78263292619954, "alt_km": 497.7900868242641, "timestamp": "2025-12-25T11:37:44.065401+00:00", "meta": {"OBJECT_NAME": "TIANMU-1 17", "OBJECT_ID": "2024-004C", "EPOCH": "2025-12-25T03:51:50.235840", "MEAN_MOTION": 15.24639804, "ECCENTRICITY": 0.0003577, "INCLINATION": 97.4602, "RA_OF_ASC_NODE": 180.3792, "ARG_OF_PERICENTER": 240.1974, "MEAN_ANOMALY": 119.8908, "EPHEMERIS_TYPE": 0, "CLASSIFICATION_TYPE": "U", "NORAD_CAT_ID": 58702, "ELEMENT_SET_NO": 999, "REV_AT_EPOCH": 10923, "BSTAR": 0.00029635, "MEAN_MOTION_DOT": 7.246e-05, "MEAN_MOTION_DDOT": 0}, "tle": {"line1": "1 58702U 24004C   25359.16099810  .00007246  00000+0  29635-3 0  9996", "line2": "2 58702  97.4602 180.3792 0003577 240.1974 119.8908 15.24639804109234"}}, "geometry": {"type": "Point", "coordinates": [-175.78263292619954, -25.080094753461193]}}, {"type": "Feature", "properties": {"norad_id": 58703, "name": "TIANMU-1 18", "group": "weather", "lat": 64.50291349371645, "lon": 164.94765187552863, "alt_km": 487.65250374752486, "timestamp": "2025-12-25T11:37:44.065411+00:00", "meta": {"OBJECT_NAME": "TIANMU-1 18", "OBJECT_ID": "2024-004D", "EPOCH": "2025-12-25T05:02:29.818176", "MEAN_MOTION": 15.24623111, "ECCENTRICITY": 0.0002972, "INCLINATION": 97.462, "RA_OF_ASC_NODE": 180.6261, "ARG_OF_PERICENTER": 236.6291, "MEAN_ANOMALY": 123.4663, "EPHEMERIS_TYPE": 0, "CLASSIFICATION_TYPE": "U", "NORAD_CAT_ID": 58703, "ELEMENT_SET_NO": 999, "REV_AT_EPOCH": 10924, "BSTAR": 0.00029848, "MEAN_MOTION_DOT": 7.294e-05, "MEAN_MOTION_DDOT": 0}, "tle": {"line1": "1 58703U 24004D   25359.21006734  .00007294  00000+0  29848-3 0  9995", "line2": "2 58703  97.4620 180.6261 0002972 236.6291 123.4663 15.24623111109243"}}, "geometry": {"type": "Point", "coordinates": [164.94765187552863, 64.50291349371645]}}, {"type": "Feature", "properties": {"norad_id": 58990, "name": "INSAT-3DS", "group": "weather", "lat": -0.062115830832831447, "lon": -9.206095719368813, "alt_km": 35784.932567422286, "timestamp": "2025-12-25T11:37:44.065423+00:00", "meta": {"OBJECT_NAME": "INSAT-3DS", "OBJECT_ID": "2024-033A", "EPOCH": "2025-12-24T23:45:39.809376", "MEAN_MOTION": 1.00271318, "ECCENTRICITY": 0.0001255, "INCLINATION": 0.0601, "RA_OF_ASC_NODE": 99.644, "ARG_OF_PERICENTER": 175.3991, "MEAN_ANOMALY": 257.2391, "EPHEMERIS_TYPE": 0, "CLASSIFICATION_TYPE": "U", "NORAD_CAT_ID": 58990, "ELEMENT_SET_NO": 999, "REV_AT_EPOCH": 4532, "BSTAR": 0, "MEAN_MOTION_DOT": -1.35e-06, "MEAN_MOTION_DDOT": 0}, "tle": {"line1": "1 58990U 24033A   25358.99004409 -.00000135  00000+0  00000+0 0  9999", "line2": "2 58990   0.0601  99.6440 0001255 175.3991 257.2391  1.00271318 45326"}}, "geometry": {"type": "Point", "coordinates": [-9.206095719368813, -0.062115830832831447]}}, {"type": "Feature", "properties": {"norad_id": 59051, "name": "METEOR-M2 4", "group": "weather", "lat": -60.6035067965276, "lon": 120.46505798845219, "alt_km": 823.4355054460311, "timestamp": "2025-12-25T11:37:44.065434+00:00", "meta": {"OBJECT_NAME": "METEOR-M2 4", "OBJECT_ID": "2024-039A", "EPOCH": "2025-12-25T03:44:32.186976", "MEAN_MOTION": 14.22403141, "ECCENTRICITY": 0.000639, "INCLINATION": 98.6784, "RA_OF_ASC_NODE": 315.8711, "ARG_OF_PERICENTER": 321.1725, "MEAN_ANOMALY": 38.8993, "EPHEMERIS_TYPE": 0, "CLASSIFICATION_TYPE": "U", "NORAD_CAT_ID": 59051, "ELEMENT_SET_NO": 999, "REV_AT_EPOCH": 9452, "BSTAR": 3.9876e-05, "MEAN_MOTION_DOT": 4.5e-07, "MEAN_MOTION_DDOT": 0}, "tle": {"line1": "1 59051U 24039A   25359.15592809  .00000045  00000+0  39876-4 0  9996", "line2": "2 59051  98.6784 315.8711 0006390 321.1725  38.8993 14.22403141 94521"}}, "geometry": {"type": "Point", "coordinates": [120.46505798845219, -60.6035067965276]}}, {"type": "Feature", "properties": {"norad_id": 60133, "name": "GOES 19", "group": "weather", "lat": 0.00032014264969525494, "lon": -166.52302592306486, "alt_km": 35788.937947830505, "timestamp": "2025-12-25T11:37:44.065445+00:00", "meta": {"OBJECT_NAME": "GOES 19", "OBJECT_ID": "2024-119A", "EPOCH": "2025-12-25T04:31:42.625056", "MEAN_MOTION": 1.0027105, "ECCENTRICITY": 0.0001037, "INCLINATION": 0.0152, "RA_OF_ASC_NODE": 183.0311, "ARG_OF_PERICENTER": 137.5029, "MEAN_ANOMALY": 126.1624, "EPHEMERIS_TYPE": 0, "CLASSIFICATION_TYPE": "U", "NORAD_CAT_ID": 60133, "ELEMENT_SET_NO": 999, "REV_AT_EPOCH": 521, "BSTAR": 0, "MEAN_MOTION_DOT": -2.27e-06, "MEAN_MOTION_DDOT": 0}, "tle": {"line1": "1 60133U 24119A   25359.18868779 -.00000227  00000+0  00000+0 0  9998", "line2": "2 60133   0.0152 183.0311 0001037 137.5029 126.1624  1.00271050  5214"}}, "geometry": {"type": "Point", "coordinates": [-166.52302592306486, 0.00032014264969525494]}}, {"type": "Feature", "properties": {"norad_id": 65815, "name": "FENGYUN 3H", "group": "weather", "lat": 6.142324323097078, "lon": -62.1406849562749, "alt_km": 827.8656166995424, "timestamp": "2025-12-25T11:37:44.065458+00:00", "meta": {"OBJECT_NAME": "FENGYUN 3H", "OBJECT_ID": "2025-219A", "EPOCH": "2025-12-25T03:08:37.326048", "MEAN_MOTION": 14.1990789, "ECCENTRICITY": 8.43e-05, "INCLINATION": 98.6601, "RA_OF_ASC_NODE": 298.4532, "ARG_OF_PERICENTER": 108.8582, "MEAN_ANOMALY": 251.2686, "EPHEMERIS_TYPE": 0, "CLASSIFICATION_TYPE": "U", "NORAD_CAT_ID": 65815, "ELEMENT_SET_NO": 999, "REV_AT_EPOCH": 1268, "BSTAR": 6.5638e-05, "MEAN_MOTION_DOT": 9.6e-07, "MEAN_MOTION_DDOT": 0}, "tle": {"line1": "1 65815U 25219A   25359.13098757  .00000096  00000+0  65638-4 0  9994", "line2": "2 65815  98.6601 298.4532 0000843 108.8582 251.2686 14.19907890 12682"}}, "geometry": {"type": "Point", "coordinates": [-62.1406849562749, 6.142324323097078]}}]}